HIERARCHY
ROOT Hips
{
  OFFSET 0.000000 -0.000000 -0.000000
  CHANNELS 6 Xposition Yposition Zposition Zrotation Xrotation Yrotation
  JOINT Joint_001
  {
    OFFSET 0.000000 -0.923987 -0.000000
    CHANNELS 3 Zrotation Xrotation Yrotation
  }
  JOINT Joint_002
  {
    OFFSET 0.075036 -0.907410 -0.003457
    CHANNELS 3 Zrotation Xrotation Yrotation
  }
  JOINT Joint_003
  {
    OFFSET 0.079416 -0.451112 -0.059721
    CHANNELS 3 Zrotation Xrotation Yrotation
  }
  JOINT Joint_004
  {
    OFFSET 0.069064 -0.027656 -0.048826
    CHANNELS 3 Zrotation Xrotation Yrotation
  }
  JOINT Joint_005
  {
    OFFSET 0.069108 -0.029041 -0.049105
    CHANNELS 3 Zrotation Xrotation Yrotation
  }
  JOINT Joint_006
  {
    OFFSET 0.073848 0.005563 -0.055136
    CHANNELS 3 Zrotation Xrotation Yrotation
  }
  JOINT Joint_007
  {
    OFFSET 0.077691 -0.010149 -0.114052
    CHANNELS 3 Zrotation Xrotation Yrotation
  }
  JOINT Joint_008
  {
    OFFSET 0.079538 0.013124 -0.189732
    CHANNELS 3 Zrotation Xrotation Yrotation
  }
  JOINT Joint_009
  {
    OFFSET 0.077346 -0.366421 -0.057542
    CHANNELS 3 Zrotation Xrotation Yrotation
  }
  JOINT Joint_010
  {
    OFFSET 0.075275 -0.281730 -0.055363
    CHANNELS 3 Zrotation Xrotation Yrotation
  }
  JOINT Joint_011
  {
    OFFSET 0.073205 -0.197038 -0.053184
    CHANNELS 3 Zrotation Xrotation Yrotation
  }
  JOINT Joint_012
  {
    OFFSET 0.071135 -0.112347 -0.051005
    CHANNELS 3 Zrotation Xrotation Yrotation
  }
  JOINT Joint_013
  {
    OFFSET 0.075036 -0.907410 -0.003457
    CHANNELS 3 Zrotation Xrotation Yrotation
  }
  JOINT Joint_014
  {
    OFFSET 0.076131 -0.793335 -0.017523
    CHANNELS 3 Zrotation Xrotation Yrotation
  }
  JOINT Joint_015
  {
    OFFSET 0.077226 -0.679261 -0.031589
    CHANNELS 3 Zrotation Xrotation Yrotation
  }
  JOINT Joint_016
  {
    OFFSET 0.078321 -0.565186 -0.045655
    CHANNELS 3 Zrotation Xrotation Yrotation
  }
  JOINT Joint_017
  {
    OFFSET 0.079416 -0.451112 -0.059721
    CHANNELS 3 Zrotation Xrotation Yrotation
  }
  JOINT Joint_018
  {
    OFFSET -0.074868 -0.906942 -0.004626
    CHANNELS 3 Zrotation Xrotation Yrotation
  }
  JOINT Joint_019
  {
    OFFSET -0.078146 -0.451773 -0.069464
    CHANNELS 3 Zrotation Xrotation Yrotation
    End Site
    {
      OFFSET 0.0 0.0 0.0
    }
  }
}
MOTION
Frames: 1
Frame Time: 0.033333
0.000000 -0.000000 -0.000000 0.0 0.0 0.0 0.0 0.0 0.0 0.0 0.0 0.0 0.0 0.0 0.0 0.0 0.0 0.0 0.0 0.0 0.0 0.0 0.0 0.0 0.0 0.0 0.0 0.0 0.0 0.0 0.0 0.0 0.0 0.0 0.0 0.0 0.0 0.0 0.0 0.0 0.0 0.0 0.0 0.0 0.0 0.0 0.0 0.0 0.0 0.0 0.0 0.0 0.0 0.0 0.0 0.0 0.0 0.0 0.0 0.0 0.0 0.0 0.0 
